start=new Date('2022-05-23T00:00:00.000Z').valueOf();
sats=[{"TLE_LINE1":"1 45214U 20012AN  22142.70073719  .00001618  00000-0  12754-3 0  9994","SITE":"AFETR","OBJECT_ID":"2020-012AN","CENTER_NAME":"EARTH","GP_ID":"204278718","SEMIMAJOR_AXIS":"6925.360","ELEMENT_SET_NO":"999","DECAY_DATE":null,"BSTAR":"0.00012754000000","APOAPSIS":"548.767","OBJECT_NAME":"STARLINK-1233","MEAN_ANOMALY":"310.2825","MEAN_MOTION":"15.06396296","TIME_SYSTEM":"UTC","NORAD_CAT_ID":"45214","TLE_LINE2":"2 45214  53.0538 133.0577 0002227  49.8359 310.2825 15.06396296126062","COUNTRY_CODE":"US","RCS_SIZE":"LARGE","FILE":"3459268","MEAN_MOTION_DOT":"0.00001618","REV_AT_EPOCH":"12606","EPHEMERIS_TYPE":"0","RA_OF_ASC_NODE":"133.0577","CLASSIFICATION_TYPE":"U","REF_FRAME":"TEME","PERIAPSIS":"545.683","ARG_OF_PERICENTER":"49.8359","INCLINATION":"53.0538","EPOCH":"2022-05-22T16:49:03.693216","OBJECT_TYPE":"PAYLOAD","ECCENTRICITY":"0.00022270","PERIOD":"95.592","MEAN_MOTION_DDOT":"0.0000000000000","LAUNCH_DATE":"2020-02-17","MEAN_ELEMENT_THEORY":"SGP4"},{"TLE_LINE1":"1 45215U 20012AP  22142.69705216  .00000892  00000-0  78797-4 0  9990","SITE":"AFETR","OBJECT_ID":"2020-012AP","CENTER_NAME":"EARTH","GP_ID":"204279467","SEMIMAJOR_AXIS":"6925.366","ELEMENT_SET_NO":"999","DECAY_DATE":null,"APOAPSIS":"548.611","BSTAR":"0.00007879700000","OBJECT_NAME":"STARLINK-1245","MEAN_ANOMALY":"309.6763","MEAN_MOTION":"15.06394424","TIME_SYSTEM":"UTC","NORAD_CAT_ID":"45215","COUNTRY_CODE":"US","TLE_LINE2":"2 45215  53.0542 133.0686 0001993  50.4401 309.6763 15.06394424126002","RCS_SIZE":"LARGE","REV_AT_EPOCH":"12600","FILE":"3459268","MEAN_MOTION_DOT":"0.00000892","EPHEMERIS_TYPE":"0","RA_OF_ASC_NODE":"133.0686","CLASSIFICATION_TYPE":"U","REF_FRAME":"TEME","PERIAPSIS":"545.850","ARG_OF_PERICENTER":"50.4401","INCLINATION":"53.0542","EPOCH":"2022-05-22T16:43:45.306624","OBJECT_TYPE":"PAYLOAD","PERIOD":"95.592","MEAN_MOTION_DDOT":"0.0000000000000","ECCENTRICITY":"0.00019930","LAUNCH_DATE":"2020-02-17","MEAN_ELEMENT_THEORY":"SGP4"},{"OBJECT_ID":"2020-012AR","GP_ID":"204279713","CENTER_NAME":"EARTH","SITE":"AFETR","TLE_LINE1":"1 45217U 20012AR  22142.67124264 -.00000593  00000-0 -20871-4 0  9998","MEAN_MOTION":"15.06404131","NORAD_CAT_ID":"45217","TIME_SYSTEM":"UTC","SEMIMAJOR_AXIS":"6925.336","ELEMENT_SET_NO":"999","APOAPSIS":"548.521","DECAY_DATE":null,"BSTAR":"-0.00002087100000","MEAN_ANOMALY":"307.4705","OBJECT_NAME":"STARLINK-1271","CLASSIFICATION_TYPE":"U","PERIAPSIS":"545.881","REF_FRAME":"TEME","RCS_SIZE":"LARGE","FILE":"3459268","MEAN_MOTION_DOT":"-0.00000593","REV_AT_EPOCH":"12606","TLE_LINE2":"2 45217  53.0552 133.1911 0001906  52.6457 307.4705 15.06404131126061","COUNTRY_CODE":"US","RA_OF_ASC_NODE":"133.1911","EPHEMERIS_TYPE":"0","LAUNCH_DATE":"2020-02-17","OBJECT_TYPE":"PAYLOAD","PERIOD":"95.592","ECCENTRICITY":"0.00019060","MEAN_MOTION_DDOT":"0.0000000000000","MEAN_ELEMENT_THEORY":"SGP4","ARG_OF_PERICENTER":"52.6457","INCLINATION":"53.0552","EPOCH":"2022-05-22T16:06:35.364096"},{"INCLINATION":"53.0550","EPOCH":"2022-05-22T08:06:14.183424","ARG_OF_PERICENTER":"53.6277","MEAN_ELEMENT_THEORY":"SGP4","LAUNCH_DATE":"2020-02-17","ECCENTRICITY":"0.00019160","PERIOD":"95.592","MEAN_MOTION_DDOT":"0.0000000000000","OBJECT_TYPE":"PAYLOAD","RA_OF_ASC_NODE":"114.6871","EPHEMERIS_TYPE":"0","FILE":"3458680","MEAN_MOTION_DOT":"0.00001646","REV_AT_EPOCH":"12630","RCS_SIZE":"LARGE","COUNTRY_CODE":"US","TLE_LINE2":"2 45219  53.0550 114.6871 0001916  53.6277 306.4888 15.06402175126306","REF_FRAME":"TEME","PERIAPSIS":"545.880","CLASSIFICATION_TYPE":"U","MEAN_ANOMALY":"306.4888","OBJECT_NAME":"STARLINK-1187","DECAY_DATE":null,"APOAPSIS":"548.534","BSTAR":"0.00012935000000","ELEMENT_SET_NO":"999","SEMIMAJOR_AXIS":"6925.342","NORAD_CAT_ID":"45219","TIME_SYSTEM":"UTC","MEAN_MOTION":"15.06402175","SITE":"AFETR","TLE_LINE1":"1 45219U 20012AT  22142.33766416  .00001646  00000-0  12935-3 0  9993","GP_ID":"204239579","CENTER_NAME":"EARTH","OBJECT_ID":"2020-012AT"},{"OBJECT_NAME":"STARLINK-1189","MEAN_ANOMALY":"309.1535","BSTAR":"0.00003067400000","DECAY_DATE":null,"APOAPSIS":"548.450","ELEMENT_SET_NO":"999","SEMIMAJOR_AXIS":"6925.351","NORAD_CAT_ID":"45221","TIME_SYSTEM":"UTC","MEAN_MOTION":"15.06399302","SITE":"AFETR","TLE_LINE1":"1 45221U 20012AV  22142.60673744  .00000175  00000-0  30674-4 0  9994","GP_ID":"204278219","CENTER_NAME":"EARTH","OBJECT_ID":"2020-012AV","INCLINATION":"53.0555","EPOCH":"2022-05-22T14:33:42.114816","ARG_OF_PERICENTER":"50.9612","MEAN_ELEMENT_THEORY":"SGP4","LAUNCH_DATE":"2020-02-17","ECCENTRICITY":"0.00017820","PERIOD":"95.592","MEAN_MOTION_DDOT":"0.0000000000000","OBJECT_TYPE":"PAYLOAD","RA_OF_ASC_NODE":"113.4882","EPHEMERIS_TYPE":"0","FILE":"3459268","MEAN_MOTION_DOT":"0.00000175","REV_AT_EPOCH":"12633","RCS_SIZE":"LARGE","COUNTRY_CODE":"US","TLE_LINE2":"2 45221  53.0555 113.4882 0001782  50.9612 309.1535 15.06399302126336","PERIAPSIS":"545.982","REF_FRAME":"TEME","CLASSIFICATION_TYPE":"U"},{"TLE_LINE1":"1 45222U 20012AW  22142.61411187 -.00000437  00000-0 -10432-4 0  9990","SITE":"AFETR","OBJECT_ID":"2020-012AW","CENTER_NAME":"EARTH","GP_ID":"204278968","ELEMENT_SET_NO":"999","SEMIMAJOR_AXIS":"6925.372","MEAN_ANOMALY":"316.9282","OBJECT_NAME":"STARLINK-1191","DECAY_DATE":null,"APOAPSIS":"548.627","BSTAR":"-0.00001043200000","MEAN_MOTION":"15.06392404","TIME_SYSTEM":"UTC","NORAD_CAT_ID":"45222","TLE_LINE2":"2 45222  53.0534 113.4355 0002008  43.1864 316.9282 15.06392404126335","COUNTRY_CODE":"US","FILE":"3459268","MEAN_MOTION_DOT":"-0.00000437","REV_AT_EPOCH":"12633","RCS_SIZE":"LARGE","EPHEMERIS_TYPE":"0","RA_OF_ASC_NODE":"113.4355","CLASSIFICATION_TYPE":"U","PERIAPSIS":"545.846","REF_FRAME":"TEME","ARG_OF_PERICENTER":"43.1864","EPOCH":"2022-05-22T14:44:19.265568","INCLINATION":"53.0534","PERIOD":"95.593","MEAN_MOTION_DDOT":"0.0000000000000","ECCENTRICITY":"0.00020080","OBJECT_TYPE":"PAYLOAD","LAUNCH_DATE":"2020-02-17","MEAN_ELEMENT_THEORY":"SGP4"},{"MEAN_ELEMENT_THEORY":"SGP4","MEAN_MOTION_DDOT":"0.0000000000000","PERIOD":"95.592","ECCENTRICITY":"0.00022970","OBJECT_TYPE":"PAYLOAD","LAUNCH_DATE":"2020-02-17","EPOCH":"2022-05-22T15:16:09.654240","INCLINATION":"53.0548","ARG_OF_PERICENTER":"48.7090","PERIAPSIS":"545.618","REF_FRAME":"TEME","CLASSIFICATION_TYPE":"U","EPHEMERIS_TYPE":"0","RA_OF_ASC_NODE":"113.3573","TLE_LINE2":"2 45223  53.0548 113.3573 0002297  48.7090 311.4097 15.06401700126349","COUNTRY_CODE":"US","MEAN_MOTION_DOT":"0.00001741","FILE":"3459268","REV_AT_EPOCH":"12634","RCS_SIZE":"LARGE","TIME_SYSTEM":"UTC","NORAD_CAT_ID":"45223","MEAN_MOTION":"15.06401700","MEAN_ANOMALY":"311.4097","OBJECT_NAME":"STARLINK-1212","DECAY_DATE":null,"BSTAR":"0.00013579000000","APOAPSIS":"548.799","ELEMENT_SET_NO":"999","SEMIMAJOR_AXIS":"6925.343","CENTER_NAME":"EARTH","GP_ID":"204279214","OBJECT_ID":"2020-012AX","TLE_LINE1":"1 45223U 20012AX  22142.63622285  .00001741  00000-0  13579-3 0  9997","SITE":"AFETR"},{"OBJECT_ID":"2020-012AY","CENTER_NAME":"EARTH","GP_ID":"204278469","TLE_LINE1":"1 45224U 20012AY  22142.80150211  .00168753  00000-0  53420-3 0  9998","SITE":"AFETR","MEAN_MOTION":"15.90286273","TIME_SYSTEM":"UTC","NORAD_CAT_ID":"45224","ELEMENT_SET_NO":"999","SEMIMAJOR_AXIS":"6679.618","OBJECT_NAME":"STARLINK-1214","MEAN_ANOMALY":"97.4422","DECAY_DATE":null,"BSTAR":"0.00053420000000","APOAPSIS":"302.593","CLASSIFICATION_TYPE":"U","REF_FRAME":"TEME","PERIAPSIS":"300.373","COUNTRY_CODE":"US","TLE_LINE2":"2 45224  53.0411 303.2444 0001662 262.6414  97.4422 15.90286273128612","REV_AT_EPOCH":"12861","FILE":"3459268","MEAN_MOTION_DOT":"0.00168753","RCS_SIZE":"LARGE","EPHEMERIS_TYPE":"0","RA_OF_ASC_NODE":"303.2444","PERIOD":"90.550","MEAN_MOTION_DDOT":"0.0000000000000","ECCENTRICITY":"0.00016620","OBJECT_TYPE":"PAYLOAD","LAUNCH_DATE":"2020-02-17","MEAN_ELEMENT_THEORY":"SGP4","ARG_OF_PERICENTER":"262.6414","EPOCH":"2022-05-22T19:14:09.782304","INCLINATION":"53.0411"},{"EPOCH":"2022-05-22T15:42:41.663232","INCLINATION":"53.0556","ARG_OF_PERICENTER":"44.8261","MEAN_ELEMENT_THEORY":"SGP4","LAUNCH_DATE":"2020-02-17","MEAN_MOTION_DDOT":"0.0000000000000","PERIOD":"95.592","ECCENTRICITY":"0.00022170","OBJECT_TYPE":"PAYLOAD","RA_OF_ASC_NODE":"113.2477","EPHEMERIS_TYPE":"0","FILE":"3459268","REV_AT_EPOCH":"12629","MEAN_MOTION_DOT":"0.00001245","RCS_SIZE":"LARGE","COUNTRY_CODE":"US","TLE_LINE2":"2 45225  53.0556 113.2477 0002217  44.8261 315.2907 15.06406297126293","PERIAPSIS":"545.659","REF_FRAME":"TEME","CLASSIFICATION_TYPE":"U","OBJECT_NAME":"STARLINK-1215","MEAN_ANOMALY":"315.2907","DECAY_DATE":null,"APOAPSIS":"548.730","BSTAR":"0.00010249000000","ELEMENT_SET_NO":"999","SEMIMAJOR_AXIS":"6925.329","NORAD_CAT_ID":"45225","TIME_SYSTEM":"UTC","MEAN_MOTION":"15.06406297","SITE":"AFETR","TLE_LINE1":"1 45225U 20012AZ  22142.65464888  .00001245  00000-0  10249-3 0  9994","GP_ID":"204278719","CENTER_NAME":"EARTH","OBJECT_ID":"2020-012AZ"},{"OBJECT_ID":"2020-012BA","GP_ID":"204240081","CENTER_NAME":"EARTH","SITE":"AFETR","TLE_LINE1":"1 45226U 20012BA  22142.33029148 -.00000294  00000-0 -83424-6 0  9999","MEAN_MOTION":"15.06407098","NORAD_CAT_ID":"45226","TIME_SYSTEM":"UTC","SEMIMAJOR_AXIS":"6925.327","ELEMENT_SET_NO":"999","DECAY_DATE":null,"APOAPSIS":"548.549","BSTAR":"-0.00000083424000","OBJECT_NAME":"STARLINK-1217","MEAN_ANOMALY":"296.9100","CLASSIFICATION_TYPE":"U","REF_FRAME":"TEME","PERIAPSIS":"545.834","RCS_SIZE":"LARGE","MEAN_MOTION_DOT":"-0.00000294","FILE":"3458680","REV_AT_EPOCH":"12620","TLE_LINE2":"2 45226  53.0549 114.7136 0001960  63.2090 296.9100 15.06407098126204","COUNTRY_CODE":"US","RA_OF_ASC_NODE":"114.7136","EPHEMERIS_TYPE":"0","LAUNCH_DATE":"2020-02-17","OBJECT_TYPE":"PAYLOAD","PERIOD":"95.592","MEAN_MOTION_DDOT":"0.0000000000000","ECCENTRICITY":"0.00019600","MEAN_ELEMENT_THEORY":"SGP4","ARG_OF_PERICENTER":"63.2090","EPOCH":"2022-05-22T07:55:37.183872","INCLINATION":"53.0549"}];
